NUSAT-47                
1 66743U 25276CF  26193.96297660  .00003725  00000+0  17325-3 0  9991
2 66743  97.4187 267.1639 0000234 217.0336 143.0883 15.20570464 34344
NUSAT-53 (JANE GOODALL) 
1 68432U 26067S   26194.42290438  .00003357  00000+0  16446-3 0  9999
2 68432  97.4571 152.5660 0000829 354.3642   5.7583 15.18838983 15928
NUSAT-54 (BRANCA MARQU*)
1 68442U 26067AC  26194.34760891  .00002955  00000+0  14869-3 0  9996
2 68442  97.4553 152.3377 0004024   6.5046 353.6240 15.17986122 15908
