{"fetched_at":"2026-07-13T18:17:07.460Z","source":"https://celestrak.org/NORAD/elements/gp.php?NAME=NUSAT&FORMAT=JSON","constellation":"satellogic","records":[{"OBJECT_NAME":"NUSAT-47","OBJECT_ID":"2025-276CF","EPOCH":"2026-07-12T23:06:41.178240","CLASSIFICATION_TYPE":"U","MEAN_MOTION":15.20570464,"ECCENTRICITY":0.00002346,"INCLINATION":97.4187,"RA_OF_ASC_NODE":267.1639,"ARG_OF_PERICENTER":217.0336,"MEAN_ANOMALY":143.0883,"EPHEMERIS_TYPE":0,"NORAD_CAT_ID":66743,"ELEMENT_SET_NO":999,"REV_AT_EPOCH":3434,"BSTAR":0.00017325077,"MEAN_MOTION_DOT":0.00003725,"MEAN_MOTION_DDOT":0},{"OBJECT_NAME":"NUSAT-53 (JANE GOODALL)","OBJECT_ID":"2026-067S","EPOCH":"2026-07-13T10:08:58.938432","CLASSIFICATION_TYPE":"U","MEAN_MOTION":15.18838983,"ECCENTRICITY":0.0000829,"INCLINATION":97.4571,"RA_OF_ASC_NODE":152.566,"ARG_OF_PERICENTER":354.3642,"MEAN_ANOMALY":5.7583,"EPHEMERIS_TYPE":0,"NORAD_CAT_ID":68432,"ELEMENT_SET_NO":999,"REV_AT_EPOCH":1592,"BSTAR":0.00016446,"MEAN_MOTION_DOT":0.00003357,"MEAN_MOTION_DDOT":0},{"OBJECT_NAME":"NUSAT-54 (BRANCA MARQUES)","OBJECT_ID":"2026-067AC","EPOCH":"2026-07-13T08:20:33.409824","CLASSIFICATION_TYPE":"U","MEAN_MOTION":15.17986122,"ECCENTRICITY":0.0004024,"INCLINATION":97.4553,"RA_OF_ASC_NODE":152.3377,"ARG_OF_PERICENTER":6.5046,"MEAN_ANOMALY":353.624,"EPHEMERIS_TYPE":0,"NORAD_CAT_ID":68442,"ELEMENT_SET_NO":999,"REV_AT_EPOCH":1590,"BSTAR":0.00014869,"MEAN_MOTION_DOT":0.00002955,"MEAN_MOTION_DDOT":0}]}
